ONEWEB-0211             
1 48767U 21045A   26082.28829730  .00000085  00000+0  18947-3 0  9995
2 48767  87.8927 276.2478 0002385  88.4841 271.6563 13.16192022233142
ONEWEB-0223             
1 48768U 21045B   26082.24848886 -.00000120  00000+0 -35167-3 0  9990
2 48768  87.8934 276.3411 0002136  95.2836 264.8538 13.15548398233105
ONEWEB-0230             
1 48769U 21045C   26081.99179757  .00000159  00000+0  38710-3 0  9993
2 48769  87.8927 276.4140 0001559  93.6104 266.5205 13.15548888233335
ONEWEB-0237             
1 48770U 21045D   26081.98070381  .00000143  00000+0  34447-3 0  9993
2 48770  87.8923 276.4179 0001902  98.6631 261.4715 13.15548620233050
ONEWEB-0235             
1 48771U 21045E   26082.03140447 -.00000079  00000+0 -24266-3 0  9990
2 48771  87.8933 276.3851 0002125  98.0176 262.1195 13.15549149233051
ONEWEB-0242             
1 48772U 21045F   26082.25323600 -.00000133  00000+0 -38671-3 0  9995
2 48772  87.8937 276.3366 0001744  97.9381 262.1947 13.15548694233126
ONEWEB-0241             
1 48773U 21045G   26082.24056545 -.00000074  00000+0 -23129-3 0  9992
2 48773  87.8926 276.3672 0002121  90.6155 269.5218 13.15548852233032
ONEWEB-0243             
1 48774U 21045H   26082.27225138 -.00000018  00000+0 -82891-4 0  9992
2 48774  87.8923 276.3720 0001934 108.7910 251.3430 13.15547399233068
ONEWEB-0222             
1 48775U 21045J   26082.25562073 -.00000088  00000+0 -26801-3 0  9998
2 48775  87.8933 276.3364 0001879  92.8411 267.2934 13.15549485233109
ONEWEB-0244             
1 48776U 21045K   26082.05359303  .00000109  00000+0  25617-3 0  9993
2 48776  87.8932 276.3672 0001787  95.9100 264.2234 13.15548708233644
ONEWEB-0247             
1 48777U 21045L   26082.05042742  .00000129  00000+0  30847-3 0  9993
2 48777  87.8924 276.4113 0002312 109.6082 250.5298 13.15548887233088
ONEWEB-0245             
1 48778U 21045M   26082.04566411 -.00000019  00000+0 -83767-4 0  9997
2 48778  87.8932 276.3833 0001909  88.5880 271.5469 13.15548967233057
ONEWEB-0229             
1 48779U 21045N   26082.04091260 -.00000016  00000+0 -75371-4 0  9992
2 48779  87.8932 276.3827 0001717  97.0342 263.0984 13.15548933233080
ONEWEB-0228             
1 48780U 21045P   26082.22645327  .00000150  00000+0  36540-3 0  9994
2 48780  87.8937 276.3328 0001801  94.1810 265.9526 13.15548459233025
ONEWEB-0232             
1 48781U 21045Q   26082.27701251 -.00000013  00000+0 -69861-4 0  9992
2 48781  87.8944 276.3233 0001720  92.8214 267.3114 13.15547763233354
ONEWEB-0231             
1 48782U 21045R   26082.25482571 -.00000116  00000+0 -34241-3 0  9999
2 48782  87.8926 276.3519 0001970  93.9939 266.1417 13.15548912233041
