[{"OBJECT_NAME":"ONEWEB-0211","OBJECT_ID":"2021-045A","EPOCH":"2026-03-23T06:55:08.886720","MEAN_MOTION":13.16192022,"ECCENTRICITY":0.00023855,"INCLINATION":87.8927,"RA_OF_ASC_NODE":276.2478,"ARG_OF_PERICENTER":88.4841,"MEAN_ANOMALY":271.6563,"EPHEMERIS_TYPE":0,"CLASSIFICATION_TYPE":"U","NORAD_CAT_ID":48767,"ELEMENT_SET_NO":999,"REV_AT_EPOCH":23314,"BSTAR":0.00018946695,"MEAN_MOTION_DOT":8.5e-7,"MEAN_MOTION_DDOT":0},{"OBJECT_NAME":"ONEWEB-0223","OBJECT_ID":"2021-045B","EPOCH":"2026-03-23T05:57:49.437504","MEAN_MOTION":13.15548398,"ECCENTRICITY":0.0002136,"INCLINATION":87.8934,"RA_OF_ASC_NODE":276.3411,"ARG_OF_PERICENTER":95.2836,"MEAN_ANOMALY":264.8538,"EPHEMERIS_TYPE":0,"CLASSIFICATION_TYPE":"U","NORAD_CAT_ID":48768,"ELEMENT_SET_NO":999,"REV_AT_EPOCH":23310,"BSTAR":-0.00035166694,"MEAN_MOTION_DOT":-1.2e-6,"MEAN_MOTION_DDOT":0},{"OBJECT_NAME":"ONEWEB-0230","OBJECT_ID":"2021-045C","EPOCH":"2026-03-22T23:48:11.310048","MEAN_MOTION":13.15548888,"ECCENTRICITY":0.00015591,"INCLINATION":87.8927,"RA_OF_ASC_NODE":276.414,"ARG_OF_PERICENTER":93.6104,"MEAN_ANOMALY":266.5205,"EPHEMERIS_TYPE":0,"CLASSIFICATION_TYPE":"U","NORAD_CAT_ID":48769,"ELEMENT_SET_NO":999,"REV_AT_EPOCH":23333,"BSTAR":0.00038710051,"MEAN_MOTION_DOT":1.59e-6,"MEAN_MOTION_DDOT":0},{"OBJECT_NAME":"ONEWEB-0237","OBJECT_ID":"2021-045D","EPOCH":"2026-03-22T23:32:12.809184","MEAN_MOTION":13.1554862,"ECCENTRICITY":0.00019022,"INCLINATION":87.8923,"RA_OF_ASC_NODE":276.4179,"ARG_OF_PERICENTER":98.6631,"MEAN_ANOMALY":261.4715,"EPHEMERIS_TYPE":0,"CLASSIFICATION_TYPE":"U","NORAD_CAT_ID":48770,"ELEMENT_SET_NO":999,"REV_AT_EPOCH":23305,"BSTAR":0.00034447359,"MEAN_MOTION_DOT":1.43e-6,"MEAN_MOTION_DDOT":0},{"OBJECT_NAME":"ONEWEB-0235","OBJECT_ID":"2021-045E","EPOCH":"2026-03-23T00:45:13.346208","MEAN_MOTION":13.15549149,"ECCENTRICITY":0.0002125,"INCLINATION":87.8933,"RA_OF_ASC_NODE":276.3851,"ARG_OF_PERICENTER":98.0176,"MEAN_ANOMALY":262.1195,"EPHEMERIS_TYPE":0,"CLASSIFICATION_TYPE":"U","NORAD_CAT_ID":48771,"ELEMENT_SET_NO":999,"REV_AT_EPOCH":23305,"BSTAR":-0.00024265728,"MEAN_MOTION_DOT":-7.9e-7,"MEAN_MOTION_DDOT":0},{"OBJECT_NAME":"ONEWEB-0242","OBJECT_ID":"2021-045F","EPOCH":"2026-03-23T06:04:39.590400","MEAN_MOTION":13.15548694,"ECCENTRICITY":0.00017441,"INCLINATION":87.8937,"RA_OF_ASC_NODE":276.3366,"ARG_OF_PERICENTER":97.9381,"MEAN_ANOMALY":262.1947,"EPHEMERIS_TYPE":0,"CLASSIFICATION_TYPE":"U","NORAD_CAT_ID":48772,"ELEMENT_SET_NO":999,"REV_AT_EPOCH":23312,"BSTAR":-0.00038671273,"MEAN_MOTION_DOT":-1.33e-6,"MEAN_MOTION_DDOT":0},{"OBJECT_NAME":"ONEWEB-0241","OBJECT_ID":"2021-045G","EPOCH":"2026-03-23T05:46:24.854880","MEAN_MOTION":13.15548852,"ECCENTRICITY":0.0002121,"INCLINATION":87.8926,"RA_OF_ASC_NODE":276.3672,"ARG_OF_PERICENTER":90.6155,"MEAN_ANOMALY":269.5218,"EPHEMERIS_TYPE":0,"CLASSIFICATION_TYPE":"U","NORAD_CAT_ID":48773,"ELEMENT_SET_NO":999,"REV_AT_EPOCH":23303,"BSTAR":-0.00023128573,"MEAN_MOTION_DOT":-7.4e-7,"MEAN_MOTION_DDOT":0},{"OBJECT_NAME":"ONEWEB-0243","OBJECT_ID":"2021-045H","EPOCH":"2026-03-23T06:32:02.519232","MEAN_MOTION":13.15547399,"ECCENTRICITY":0.00019343,"INCLINATION":87.8923,"RA_OF_ASC_NODE":276.372,"ARG_OF_PERICENTER":108.791,"MEAN_ANOMALY":251.343,"EPHEMERIS_TYPE":0,"CLASSIFICATION_TYPE":"U","NORAD_CAT_ID":48774,"ELEMENT_SET_NO":999,"REV_AT_EPOCH":23306,"BSTAR":-8.2891372e-5,"MEAN_MOTION_DOT":-1.8e-7,"MEAN_MOTION_DDOT":0},{"OBJECT_NAME":"ONEWEB-0222","OBJECT_ID":"2021-045J","EPOCH":"2026-03-23T06:08:05.631072","MEAN_MOTION":13.15549485,"ECCENTRICITY":0.00018796,"INCLINATION":87.8933,"RA_OF_ASC_NODE":276.3364,"ARG_OF_PERICENTER":92.8411,"MEAN_ANOMALY":267.2934,"EPHEMERIS_TYPE":0,"CLASSIFICATION_TYPE":"U","NORAD_CAT_ID":48775,"ELEMENT_SET_NO":999,"REV_AT_EPOCH":23310,"BSTAR":-0.00026801402,"MEAN_MOTION_DOT":-8.8e-7,"MEAN_MOTION_DDOT":0},{"OBJECT_NAME":"ONEWEB-0244","OBJECT_ID":"2021-045K","EPOCH":"2026-03-23T01:17:10.437792","MEAN_MOTION":13.15548708,"ECCENTRICITY":0.00017874,"INCLINATION":87.8932,"RA_OF_ASC_NODE":276.3672,"ARG_OF_PERICENTER":95.91,"MEAN_ANOMALY":264.2234,"EPHEMERIS_TYPE":0,"CLASSIFICATION_TYPE":"U","NORAD_CAT_ID":48776,"ELEMENT_SET_NO":999,"REV_AT_EPOCH":23364,"BSTAR":0.00025617348,"MEAN_MOTION_DOT":1.09e-6,"MEAN_MOTION_DDOT":0},{"OBJECT_NAME":"ONEWEB-0247","OBJECT_ID":"2021-045L","EPOCH":"2026-03-23T01:12:36.929088","MEAN_MOTION":13.15548887,"ECCENTRICITY":0.00023126,"INCLINATION":87.8924,"RA_OF_ASC_NODE":276.4113,"ARG_OF_PERICENTER":109.6082,"MEAN_ANOMALY":250.5298,"EPHEMERIS_TYPE":0,"CLASSIFICATION_TYPE":"U","NORAD_CAT_ID":48777,"ELEMENT_SET_NO":999,"REV_AT_EPOCH":23308,"BSTAR":0.00030847168,"MEAN_MOTION_DOT":1.29e-6,"MEAN_MOTION_DDOT":0},{"OBJECT_NAME":"ONEWEB-0245","OBJECT_ID":"2021-045M","EPOCH":"2026-03-23T01:05:45.379104","MEAN_MOTION":13.15548967,"ECCENTRICITY":0.0001909,"INCLINATION":87.8932,"RA_OF_ASC_NODE":276.3833,"ARG_OF_PERICENTER":88.588,"MEAN_ANOMALY":271.5469,"EPHEMERIS_TYPE":0,"CLASSIFICATION_TYPE":"U","NORAD_CAT_ID":48778,"ELEMENT_SET_NO":999,"REV_AT_EPOCH":23305,"BSTAR":-8.3767229e-5,"MEAN_MOTION_DOT":-1.9e-7,"MEAN_MOTION_DDOT":0},{"OBJECT_NAME":"ONEWEB-0229","OBJECT_ID":"2021-045N","EPOCH":"2026-03-23T00:58:54.848640","MEAN_MOTION":13.15548933,"ECCENTRICITY":0.00017171,"INCLINATION":87.8932,"RA_OF_ASC_NODE":276.3827,"ARG_OF_PERICENTER":97.0342,"MEAN_ANOMALY":263.0984,"EPHEMERIS_TYPE":0,"CLASSIFICATION_TYPE":"U","NORAD_CAT_ID":48779,"ELEMENT_SET_NO":999,"REV_AT_EPOCH":23308,"BSTAR":-7.5370969e-5,"MEAN_MOTION_DOT":-1.6e-7,"MEAN_MOTION_DDOT":0},{"OBJECT_NAME":"ONEWEB-0228","OBJECT_ID":"2021-045P","EPOCH":"2026-03-23T05:26:05.562528","MEAN_MOTION":13.15548459,"ECCENTRICITY":0.00018013,"INCLINATION":87.8937,"RA_OF_ASC_NODE":276.3328,"ARG_OF_PERICENTER":94.181,"MEAN_ANOMALY":265.9526,"EPHEMERIS_TYPE":0,"CLASSIFICATION_TYPE":"U","NORAD_CAT_ID":48780,"ELEMENT_SET_NO":999,"REV_AT_EPOCH":23302,"BSTAR":0.00036540195,"MEAN_MOTION_DOT":1.5e-6,"MEAN_MOTION_DDOT":0},{"OBJECT_NAME":"ONEWEB-0232","OBJECT_ID":"2021-045Q","EPOCH":"2026-03-23T06:38:53.880864","MEAN_MOTION":13.15547763,"ECCENTRICITY":0.00017205,"INCLINATION":87.8944,"RA_OF_ASC_NODE":276.3233,"ARG_OF_PERICENTER":92.8214,"MEAN_ANOMALY":267.3114,"EPHEMERIS_TYPE":0,"CLASSIFICATION_TYPE":"U","NORAD_CAT_ID":48781,"ELEMENT_SET_NO":999,"REV_AT_EPOCH":23335,"BSTAR":-6.9861223e-5,"MEAN_MOTION_DOT":-1.3e-7,"MEAN_MOTION_DDOT":0},{"OBJECT_NAME":"ONEWEB-0231","OBJECT_ID":"2021-045R","EPOCH":"2026-03-23T06:06:56.941344","MEAN_MOTION":13.15548912,"ECCENTRICITY":0.00019703,"INCLINATION":87.8926,"RA_OF_ASC_NODE":276.3519,"ARG_OF_PERICENTER":93.9939,"MEAN_ANOMALY":266.1417,"EPHEMERIS_TYPE":0,"CLASSIFICATION_TYPE":"U","NORAD_CAT_ID":48782,"ELEMENT_SET_NO":999,"REV_AT_EPOCH":23304,"BSTAR":-0.000342406,"MEAN_MOTION_DOT":-1.16e-6,"MEAN_MOTION_DDOT":0}]
